TWILIGHT AH             
1 67394U 26004AH  26037.97922930  .00010382  00000+0  50886-3 0  9993
2 67394  97.4475  38.9330 0010744  73.8956 286.3460 15.18274410  4003
TWILIGHT AJ             
1 67395U 26004AJ  26037.97800852  .00002599  00000+0  29048-3 0  9999
2 67395  97.8015  38.7054 0005029 181.6191 178.5010 14.87805063  3919
TWILIGHT AK             
1 67396U 26004AK  26037.98638847  .00011641  00000+0  57717-3 0  9996
2 67396  97.4511  38.9366 0008807  74.1574 286.0630 15.17857495  4007
CARBSAR                 
1 67397U 26004AL  26037.98851394  .00012912  00000+0  63970-3 0  9991
2 67397  97.4533  38.9418 0007959  78.2817 281.9310 15.17865374  4006
TWILIGHT AM             
1 67398U 26004AM  26037.98511744  .00011918  00000+0  58887-3 0  9990
2 67398  97.4569  38.9586 0008825  82.5879 277.6357 15.17971642  4000
TWILIGHT AN             
1 67399U 26004AN  26037.98242033  .00006480  00000+0  32053-3 0  9998
2 67399  97.4558  38.9582 0009616  82.3260 277.9066 15.18118090  4007
CONNECTA IOT-13         
1 67400U 26004AP  26037.97744488  .00008624  00000+0  42440-3 0  9994
2 67400  97.4557  38.9642 0011016  81.3034 278.9448 15.18184197  4007
CONNECTA IOT-14         
1 67401U 26004AQ  26037.97532996  .00017427  00000+0  84491-3 0  9997
2 67401  97.4490  38.9472 0011996  78.6278 281.6303 15.18516193  4007
CONNECTA IOT-15         
1 67402U 26004AR  26037.93713990 -.00016935  00000+0 -86256-3 0  9995
2 67402  97.4561  38.8669 0004618  71.8379 288.3357 15.16739164  3986
SHIJIAN-29B (SJ-29B)    
1 67403U 25315C   26037.85428982 -.00000065  00000+0  00000+0 0  9990
2 67403   3.0678  98.5205 0002361 312.6229 106.4775  1.00272215   383
STARLINK-36484          
1 67404U 26005A   26037.91671296  .00113290  00000+0  26835-2 0  9994
2 67404  43.0008  54.5726 0001642 265.7228 247.1916 15.40652074  5191
STARLINK-36452          
1 67405U 26005B   26037.47971864  .00131252  00000+0  22014-2 0  9993
2 67405  43.0004  56.8141 0001767 268.4502  91.6156 15.50635221  3896
