CCSDS_OMM_VERS = 2.0
CREATION_DATE  = 
ORIGINATOR     = 

OBJECT_NAME    = TWILIGHT AH
OBJECT_ID      = 2026-004AH
CENTER_NAME    = EARTH
REF_FRAME      = TEME
TIME_SYSTEM    = UTC
MEAN_ELEMENT_THEORY = SGP/SGP4

EPOCH          = 2026-02-06T23:30:05.411520
MEAN_MOTION    = 15.18274410
ECCENTRICITY   = .00107445
INCLINATION    = 97.4475
RA_OF_ASC_NODE = 38.9330
ARG_OF_PERICENTER = 73.8956
MEAN_ANOMALY   = 286.3460

EPHEMERIS_TYPE = 0
CLASSIFICATION_TYPE = U
NORAD_CAT_ID   = 67394
ELEMENT_SET_NO = 999
REV_AT_EPOCH   = 400
BSTAR          = .50885597E-3
MEAN_MOTION_DOT = .10382E-3
MEAN_MOTION_DDOT = 0

CCSDS_OMM_VERS = 2.0
CREATION_DATE  = 
ORIGINATOR     = 

OBJECT_NAME    = TWILIGHT AJ
OBJECT_ID      = 2026-004AJ
CENTER_NAME    = EARTH
REF_FRAME      = TEME
TIME_SYSTEM    = UTC
MEAN_ELEMENT_THEORY = SGP/SGP4

EPOCH          = 2026-02-06T23:28:19.936128
MEAN_MOTION    = 14.87805063
ECCENTRICITY   = .00050296
INCLINATION    = 97.8015
RA_OF_ASC_NODE = 38.7054
ARG_OF_PERICENTER = 181.6191
MEAN_ANOMALY   = 178.5010

EPHEMERIS_TYPE = 0
CLASSIFICATION_TYPE = U
NORAD_CAT_ID   = 67395
ELEMENT_SET_NO = 999
REV_AT_EPOCH   = 391
BSTAR          = .29048398E-3
MEAN_MOTION_DOT = .2599E-4
MEAN_MOTION_DDOT = 0

CCSDS_OMM_VERS = 2.0
CREATION_DATE  = 
ORIGINATOR     = 

OBJECT_NAME    = TWILIGHT AK
OBJECT_ID      = 2026-004AK
CENTER_NAME    = EARTH
REF_FRAME      = TEME
TIME_SYSTEM    = UTC
MEAN_ELEMENT_THEORY = SGP/SGP4

EPOCH          = 2026-02-06T23:40:23.963808
MEAN_MOTION    = 15.17857495
ECCENTRICITY   = .00088073
INCLINATION    = 97.4511
RA_OF_ASC_NODE = 38.9366
ARG_OF_PERICENTER = 74.1574
MEAN_ANOMALY   = 286.0630

EPHEMERIS_TYPE = 0
CLASSIFICATION_TYPE = U
NORAD_CAT_ID   = 67396
ELEMENT_SET_NO = 999
REV_AT_EPOCH   = 400
BSTAR          = .57716694E-3
MEAN_MOTION_DOT = .11641E-3
MEAN_MOTION_DDOT = 0

CCSDS_OMM_VERS = 2.0
CREATION_DATE  = 
ORIGINATOR     = 

OBJECT_NAME    = CARBSAR
OBJECT_ID      = 2026-004AL
CENTER_NAME    = EARTH
REF_FRAME      = TEME
TIME_SYSTEM    = UTC
MEAN_ELEMENT_THEORY = SGP/SGP4

EPOCH          = 2026-02-06T23:43:27.604416
MEAN_MOTION    = 15.17865374
ECCENTRICITY   = .0007959
INCLINATION    = 97.4533
RA_OF_ASC_NODE = 38.9418
ARG_OF_PERICENTER = 78.2817
MEAN_ANOMALY   = 281.9310

EPHEMERIS_TYPE = 0
CLASSIFICATION_TYPE = U
NORAD_CAT_ID   = 67397
ELEMENT_SET_NO = 999
REV_AT_EPOCH   = 400
BSTAR          = .63969771E-3
MEAN_MOTION_DOT = .12912E-3
MEAN_MOTION_DDOT = 0

CCSDS_OMM_VERS = 2.0
CREATION_DATE  = 
ORIGINATOR     = 

OBJECT_NAME    = TWILIGHT AM
OBJECT_ID      = 2026-004AM
CENTER_NAME    = EARTH
REF_FRAME      = TEME
TIME_SYSTEM    = UTC
MEAN_ELEMENT_THEORY = SGP/SGP4

EPOCH          = 2026-02-06T23:38:34.146816
MEAN_MOTION    = 15.17971642
ECCENTRICITY   = .00088258
INCLINATION    = 97.4569
RA_OF_ASC_NODE = 38.9586
ARG_OF_PERICENTER = 82.5879
MEAN_ANOMALY   = 277.6357

EPHEMERIS_TYPE = 0
CLASSIFICATION_TYPE = U
NORAD_CAT_ID   = 67398
ELEMENT_SET_NO = 999
REV_AT_EPOCH   = 400
BSTAR          = .58887095E-3
MEAN_MOTION_DOT = .11918E-3
MEAN_MOTION_DDOT = 0

CCSDS_OMM_VERS = 2.0
CREATION_DATE  = 
ORIGINATOR     = 

OBJECT_NAME    = TWILIGHT AN
OBJECT_ID      = 2026-004AN
CENTER_NAME    = EARTH
REF_FRAME      = TEME
TIME_SYSTEM    = UTC
MEAN_ELEMENT_THEORY = SGP/SGP4

EPOCH          = 2026-02-06T23:34:41.116512
MEAN_MOTION    = 15.18118090
ECCENTRICITY   = .00096168
INCLINATION    = 97.4558
RA_OF_ASC_NODE = 38.9582
ARG_OF_PERICENTER = 82.3260
MEAN_ANOMALY   = 277.9066

EPHEMERIS_TYPE = 0
CLASSIFICATION_TYPE = U
NORAD_CAT_ID   = 67399
ELEMENT_SET_NO = 999
REV_AT_EPOCH   = 400
BSTAR          = .32053437E-3
MEAN_MOTION_DOT = .648E-4
MEAN_MOTION_DDOT = 0

CCSDS_OMM_VERS = 2.0
CREATION_DATE  = 
ORIGINATOR     = 

OBJECT_NAME    = CONNECTA IOT-13
OBJECT_ID      = 2026-004AP
CENTER_NAME    = EARTH
REF_FRAME      = TEME
TIME_SYSTEM    = UTC
MEAN_ELEMENT_THEORY = SGP/SGP4

EPOCH          = 2026-02-06T23:27:31.237632
MEAN_MOTION    = 15.18184197
ECCENTRICITY   = .0011016
INCLINATION    = 97.4557
RA_OF_ASC_NODE = 38.9642
ARG_OF_PERICENTER = 81.3034
MEAN_ANOMALY   = 278.9448

EPHEMERIS_TYPE = 0
CLASSIFICATION_TYPE = U
NORAD_CAT_ID   = 67400
ELEMENT_SET_NO = 999
REV_AT_EPOCH   = 400
BSTAR          = .42439531E-3
MEAN_MOTION_DOT = .8624E-4
MEAN_MOTION_DDOT = 0

CCSDS_OMM_VERS = 2.0
CREATION_DATE  = 
ORIGINATOR     = 

OBJECT_NAME    = CONNECTA IOT-14
OBJECT_ID      = 2026-004AQ
CENTER_NAME    = EARTH
REF_FRAME      = TEME
TIME_SYSTEM    = UTC
MEAN_ELEMENT_THEORY = SGP/SGP4

EPOCH          = 2026-02-06T23:24:28.508544
MEAN_MOTION    = 15.18516193
ECCENTRICITY   = .00119968
INCLINATION    = 97.4490
RA_OF_ASC_NODE = 38.9472
ARG_OF_PERICENTER = 78.6278
MEAN_ANOMALY   = 281.6303

EPHEMERIS_TYPE = 0
CLASSIFICATION_TYPE = U
NORAD_CAT_ID   = 67401
ELEMENT_SET_NO = 999
REV_AT_EPOCH   = 400
BSTAR          = .84490936E-3
MEAN_MOTION_DOT = .17427E-3
MEAN_MOTION_DDOT = 0

CCSDS_OMM_VERS = 2.0
CREATION_DATE  = 
ORIGINATOR     = 

OBJECT_NAME    = CONNECTA IOT-15
OBJECT_ID      = 2026-004AR
CENTER_NAME    = EARTH
REF_FRAME      = TEME
TIME_SYSTEM    = UTC
MEAN_ELEMENT_THEORY = SGP/SGP4

EPOCH          = 2026-02-06T22:29:28.887360
MEAN_MOTION    = 15.16739164
ECCENTRICITY   = .00046189
INCLINATION    = 97.4561
RA_OF_ASC_NODE = 38.8669
ARG_OF_PERICENTER = 71.8379
MEAN_ANOMALY   = 288.3357

EPHEMERIS_TYPE = 0
CLASSIFICATION_TYPE = U
NORAD_CAT_ID   = 67402
ELEMENT_SET_NO = 999
REV_AT_EPOCH   = 398
BSTAR          = -.86255656E-3
MEAN_MOTION_DOT = -.16935E-3
MEAN_MOTION_DDOT = 0

CCSDS_OMM_VERS = 2.0
CREATION_DATE  = 
ORIGINATOR     = 

OBJECT_NAME    = SHIJIAN-29B (SJ-29B)
OBJECT_ID      = 2025-315C
CENTER_NAME    = EARTH
REF_FRAME      = TEME
TIME_SYSTEM    = UTC
MEAN_ELEMENT_THEORY = SGP/SGP4

EPOCH          = 2026-02-06T20:30:10.640448
MEAN_MOTION    = 1.00272215
ECCENTRICITY   = .0002361
INCLINATION    = 3.0678
RA_OF_ASC_NODE = 98.5205
ARG_OF_PERICENTER = 312.6229
MEAN_ANOMALY   = 106.4775

EPHEMERIS_TYPE = 0
CLASSIFICATION_TYPE = U
NORAD_CAT_ID   = 67403
ELEMENT_SET_NO = 999
REV_AT_EPOCH   = 38
BSTAR          = 0
MEAN_MOTION_DOT = -.65E-6
MEAN_MOTION_DDOT = 0

CCSDS_OMM_VERS = 2.0
CREATION_DATE  = 
ORIGINATOR     = 

OBJECT_NAME    = STARLINK-36484
OBJECT_ID      = 2026-005A
CENTER_NAME    = EARTH
REF_FRAME      = TEME
TIME_SYSTEM    = UTC
MEAN_ELEMENT_THEORY = SGP/SGP4

EPOCH          = 2026-02-06T22:00:03.999744
MEAN_MOTION    = 15.40652074
ECCENTRICITY   = .00016422
INCLINATION    = 43.0008
RA_OF_ASC_NODE = 54.5726
ARG_OF_PERICENTER = 265.7228
MEAN_ANOMALY   = 247.1916

EPHEMERIS_TYPE = 0
CLASSIFICATION_TYPE = U
NORAD_CAT_ID   = 67404
ELEMENT_SET_NO = 999
REV_AT_EPOCH   = 519
BSTAR          = .26834613E-2
MEAN_MOTION_DOT = .11329E-2
MEAN_MOTION_DDOT = 0

CCSDS_OMM_VERS = 2.0
CREATION_DATE  = 
ORIGINATOR     = 

OBJECT_NAME    = STARLINK-36452
OBJECT_ID      = 2026-005B
CENTER_NAME    = EARTH
REF_FRAME      = TEME
TIME_SYSTEM    = UTC
MEAN_ELEMENT_THEORY = SGP/SGP4

EPOCH          = 2026-02-06T11:30:47.690496
MEAN_MOTION    = 15.50635221
ECCENTRICITY   = .0001767
INCLINATION    = 43.0004
RA_OF_ASC_NODE = 56.8141
ARG_OF_PERICENTER = 268.4502
MEAN_ANOMALY   = 91.6156

EPHEMERIS_TYPE = 0
CLASSIFICATION_TYPE = U
NORAD_CAT_ID   = 67405
ELEMENT_SET_NO = 999
REV_AT_EPOCH   = 389
BSTAR          = .22013576E-2
MEAN_MOTION_DOT = .131252E-2
MEAN_MOTION_DDOT = 0

